FENGYUN 1C DEB          
1 31538U 99025BYD 17344.44618270  .00001548  00000-0  55981-3 0  9995
2 31538  98.4009 222.9167 0061754 149.4052 211.0758 14.33788196247590
